start=new Date('2022-02-20T00:00:00.000Z').valueOf();
sats=[{"PERIAPSIS":"546.070","INCLINATION":"53.0560","BSTAR":"0.00015328000000","MEAN_MOTION":"15.06403272","TLE_LINE1":"1 48585U 21041AJ  22050.94157178  .00002002  00000-0  15328-3 0  9995","OBJECT_NAME":"STARLINK-2240","OBJECT_ID":"2021-041AJ","MEAN_ANOMALY":"280.9532","RA_OF_ASC_NODE":"299.9865","COUNTRY_CODE":"US","EPHEMERIS_TYPE":"0","TIME_SYSTEM":"UTC","LAUNCH_DATE":"2021-05-15","ELEMENT_SET_NO":"999","ARG_OF_PERICENTER":"79.1641","MEAN_MOTION_DOT":"0.00002002","EPOCH":"2022-02-19T22:35:51.801792","APOAPSIS":"548.337","CENTER_NAME":"EARTH","REF_FRAME":"TEME","CLASSIFICATION_TYPE":"U","SITE":"AFETR","OBJECT_TYPE":"PAYLOAD","MEAN_MOTION_DDOT":"0.0000000000000","ECCENTRICITY":"0.00016370","DECAY_DATE":null,"SEMIMAJOR_AXIS":"6925.339","REV_AT_EPOCH":"4217","MEAN_ELEMENT_THEORY":"SGP4","NORAD_CAT_ID":"48585","PERIOD":"95.592","GP_ID":"196429437","RCS_SIZE":"LARGE","FILE":"3308986","TLE_LINE2":"2 48585  53.0560 299.9865 0001637  79.1641 280.9532 15.06403272 42177"},{"FILE":"3308986","RCS_SIZE":"LARGE","TLE_LINE2":"2 48586  53.0556 300.3128 0001511  69.7487 290.3665 15.06412142 42163","NORAD_CAT_ID":"48586","MEAN_ELEMENT_THEORY":"SGP4","GP_ID":"196428940","PERIOD":"95.591","ECCENTRICITY":"0.00015110","DECAY_DATE":null,"REV_AT_EPOCH":"4216","SEMIMAJOR_AXIS":"6925.311","SITE":"AFETR","CLASSIFICATION_TYPE":"U","REF_FRAME":"TEME","MEAN_MOTION_DDOT":"0.0000000000000","OBJECT_TYPE":"PAYLOAD","CENTER_NAME":"EARTH","APOAPSIS":"548.223","ARG_OF_PERICENTER":"69.7487","ELEMENT_SET_NO":"999","MEAN_MOTION_DOT":"-0.00002586","EPOCH":"2022-02-19T20:49:42.751488","RA_OF_ASC_NODE":"300.3128","COUNTRY_CODE":"US","LAUNCH_DATE":"2021-05-15","TIME_SYSTEM":"UTC","EPHEMERIS_TYPE":"0","MEAN_MOTION":"15.06412142","TLE_LINE1":"1 48586U 21041AK  22050.86785592 -.00002586  00000-0 -15471-3 0  9992","PERIAPSIS":"546.130","BSTAR":"-0.00015471000000","INCLINATION":"53.0556","OBJECT_NAME":"STARLINK-2241","MEAN_ANOMALY":"290.3665","OBJECT_ID":"2021-041AK"},{"EPOCH":"2022-02-19T20:55:01.519968","MEAN_MOTION_DOT":"0.00001130","ARG_OF_PERICENTER":"79.7351","ELEMENT_SET_NO":"999","APOAPSIS":"548.669","CENTER_NAME":"EARTH","MEAN_ANOMALY":"280.3879","OBJECT_ID":"2021-041AL","OBJECT_NAME":"STARLINK-2242","BSTAR":"0.00009477200000","INCLINATION":"53.0538","PERIAPSIS":"545.712","MEAN_MOTION":"15.06407383","TLE_LINE1":"1 48587U 21041AL  22050.87154537  .00001130  00000-0  94772-4 0  9997","EPHEMERIS_TYPE":"0","TIME_SYSTEM":"UTC","LAUNCH_DATE":"2021-05-15","COUNTRY_CODE":"US","RA_OF_ASC_NODE":"300.2685","PERIOD":"95.592","GP_ID":"196429188","MEAN_ELEMENT_THEORY":"SGP4","NORAD_CAT_ID":"48587","TLE_LINE2":"2 48587  53.0538 300.2685 0002135  79.7351 280.3879 15.06407383 42162","RCS_SIZE":"LARGE","FILE":"3308986","OBJECT_TYPE":"PAYLOAD","MEAN_MOTION_DDOT":"0.0000000000000","REF_FRAME":"TEME","CLASSIFICATION_TYPE":"U","SITE":"AFETR","SEMIMAJOR_AXIS":"6925.326","REV_AT_EPOCH":"4216","DECAY_DATE":null,"ECCENTRICITY":"0.00021350"},{"CENTER_NAME":"EARTH","APOAPSIS":"548.326","ELEMENT_SET_NO":"999","ARG_OF_PERICENTER":"76.4052","EPOCH":"2022-02-19T22:00:02.562912","MEAN_MOTION_DOT":"-0.00000859","COUNTRY_CODE":"US","RA_OF_ASC_NODE":"290.0949","TIME_SYSTEM":"UTC","LAUNCH_DATE":"2021-05-15","EPHEMERIS_TYPE":"0","TLE_LINE1":"1 48588U 21041AM  22050.91669633 -.00000859  00000-0 -38759-4 0  9993","MEAN_MOTION":"15.06401344","BSTAR":"-0.00003875900000","INCLINATION":"53.0533","PERIAPSIS":"546.092","MEAN_ANOMALY":"283.7117","OBJECT_ID":"2021-041AM","OBJECT_NAME":"STARLINK-2244","FILE":"3308986","RCS_SIZE":"LARGE","TLE_LINE2":"2 48588  53.0533 290.0949 0001613  76.4052 283.7117 15.06401344 42319","NORAD_CAT_ID":"48588","MEAN_ELEMENT_THEORY":"SGP4","GP_ID":"196428182","PERIOD":"95.592","DECAY_DATE":null,"ECCENTRICITY":"0.00016130","REV_AT_EPOCH":"4231","SEMIMAJOR_AXIS":"6925.344","SITE":"AFETR","REF_FRAME":"TEME","CLASSIFICATION_TYPE":"U","MEAN_MOTION_DDOT":"0.0000000000000","OBJECT_TYPE":"PAYLOAD"},{"SEMIMAJOR_AXIS":"6925.356","REV_AT_EPOCH":"4231","DECAY_DATE":null,"ECCENTRICITY":"0.00013730","OBJECT_TYPE":"PAYLOAD","MEAN_MOTION_DDOT":"0.0000000000000","REF_FRAME":"TEME","CLASSIFICATION_TYPE":"U","SITE":"AFETR","TLE_LINE2":"2 48589  53.0540 290.1087 0001373  76.8182 283.2960 15.06397608 42311","RCS_SIZE":"LARGE","FILE":"3308986","PERIOD":"95.592","GP_ID":"196428937","NORAD_CAT_ID":"48589","MEAN_ELEMENT_THEORY":"SGP4","EPHEMERIS_TYPE":"0","TIME_SYSTEM":"UTC","LAUNCH_DATE":"2021-05-15","COUNTRY_CODE":"US","RA_OF_ASC_NODE":"290.1087","MEAN_ANOMALY":"283.2960","OBJECT_ID":"2021-041AN","OBJECT_NAME":"STARLINK-2245","INCLINATION":"53.0540","BSTAR":"-0.00007848700000","PERIAPSIS":"546.270","MEAN_MOTION":"15.06397608","TLE_LINE1":"1 48589U 21041AN  22050.91300839 -.00001450  00000-0 -78487-4 0  9994","APOAPSIS":"548.172","CENTER_NAME":"EARTH","EPOCH":"2022-02-19T21:54:43.924896","MEAN_MOTION_DOT":"-0.00001450","ARG_OF_PERICENTER":"76.8182","ELEMENT_SET_NO":"999"},{"COUNTRY_CODE":"US","RA_OF_ASC_NODE":"298.4856","EPHEMERIS_TYPE":"0","LAUNCH_DATE":"2021-05-15","TIME_SYSTEM":"UTC","INCLINATION":"53.0570","BSTAR":"0.01532300000000","PERIAPSIS":"453.017","TLE_LINE1":"1 48590U 21041AP  22050.92012552  .00606562  00000-0  15323-1 0  9999","MEAN_MOTION":"15.37217377","MEAN_ANOMALY":"337.3343","OBJECT_ID":"2021-041AP","OBJECT_NAME":"STARLINK-2246","APOAPSIS":"455.671","CENTER_NAME":"EARTH","ARG_OF_PERICENTER":"22.7745","ELEMENT_SET_NO":"999","EPOCH":"2022-02-19T22:04:58.844928","MEAN_MOTION_DOT":"0.00606562","DECAY_DATE":null,"ECCENTRICITY":"0.00019420","SEMIMAJOR_AXIS":"6832.479","REV_AT_EPOCH":"4219","CLASSIFICATION_TYPE":"U","REF_FRAME":"TEME","SITE":"AFETR","OBJECT_TYPE":"PAYLOAD","MEAN_MOTION_DDOT":"0.0000000000000","RCS_SIZE":"LARGE","FILE":"3308986","TLE_LINE2":"2 48590  53.0570 298.4856 0001942  22.7745 337.3343 15.37217377 42198","MEAN_ELEMENT_THEORY":"SGP4","NORAD_CAT_ID":"48590","PERIOD":"93.676","GP_ID":"196429441"},{"ELEMENT_SET_NO":"999","ARG_OF_PERICENTER":"67.3995","MEAN_MOTION_DOT":"0.00001904","EPOCH":"2022-02-19T21:32:08.416896","APOAPSIS":"548.234","CENTER_NAME":"EARTH","PERIAPSIS":"546.158","INCLINATION":"53.0602","BSTAR":"0.00014663000000","TLE_LINE1":"1 48591U 21041AQ  22050.89731964  .00001904  00000-0  14663-3 0  9998","MEAN_MOTION":"15.06405637","OBJECT_NAME":"STARLINK-2248","OBJECT_ID":"2021-041AQ","MEAN_ANOMALY":"292.7152","RA_OF_ASC_NODE":"290.1317","COUNTRY_CODE":"US","EPHEMERIS_TYPE":"0","LAUNCH_DATE":"2021-05-15","TIME_SYSTEM":"UTC","NORAD_CAT_ID":"48591","MEAN_ELEMENT_THEORY":"SGP4","PERIOD":"95.592","GP_ID":"196429689","RCS_SIZE":"LARGE","FILE":"3308986","TLE_LINE2":"2 48591  53.0602 290.1317 0001499  67.3995 292.7152 15.06405637 43215","REF_FRAME":"TEME","CLASSIFICATION_TYPE":"U","SITE":"AFETR","OBJECT_TYPE":"PAYLOAD","MEAN_MOTION_DDOT":"0.0000000000000","ECCENTRICITY":"0.00014990","DECAY_DATE":null,"SEMIMAJOR_AXIS":"6925.331","REV_AT_EPOCH":"4321"},{"TLE_LINE2":"2 48592  53.0549 300.1551 0000986 101.6033 258.5067 15.06302979 42177","FILE":"3308986","RCS_SIZE":"LARGE","GP_ID":"196428683","PERIOD":"95.598","MEAN_ELEMENT_THEORY":"SGP4","NORAD_CAT_ID":"48592","REV_AT_EPOCH":"4217","SEMIMAJOR_AXIS":"6925.646","ECCENTRICITY":"0.00009860","DECAY_DATE":null,"MEAN_MOTION_DDOT":"0.0000000000000","OBJECT_TYPE":"PAYLOAD","SITE":"AFETR","REF_FRAME":"TEME","CLASSIFICATION_TYPE":"U","CENTER_NAME":"EARTH","APOAPSIS":"548.194","MEAN_MOTION_DOT":"0.00022520","EPOCH":"2022-02-19T21:42:50.141664","ELEMENT_SET_NO":"999","ARG_OF_PERICENTER":"101.6033","TIME_SYSTEM":"UTC","LAUNCH_DATE":"2021-05-15","EPHEMERIS_TYPE":"0","RA_OF_ASC_NODE":"300.1551","COUNTRY_CODE":"US","OBJECT_NAME":"STARLINK-2249","MEAN_ANOMALY":"258.5067","OBJECT_ID":"2021-041AR","MEAN_MOTION":"15.06302979","TLE_LINE1":"1 48592U 21041AR  22050.90474701  .00022520  00000-0  15299-2 0  9996","PERIAPSIS":"546.828","BSTAR":"0.00152990000000","INCLINATION":"53.0549"},{"DECAY_DATE":null,"ECCENTRICITY":"0.00014200","SEMIMAJOR_AXIS":"6925.352","REV_AT_EPOCH":"4217","REF_FRAME":"TEME","CLASSIFICATION_TYPE":"U","SITE":"AFETR","OBJECT_TYPE":"PAYLOAD","MEAN_MOTION_DDOT":"0.0000000000000","RCS_SIZE":"LARGE","FILE":"3308986","TLE_LINE2":"2 48593  53.0564 300.1161 0001420  66.7905 293.3234 15.06398804 42170","MEAN_ELEMENT_THEORY":"SGP4","NORAD_CAT_ID":"48593","PERIOD":"95.592","GP_ID":"196430190","COUNTRY_CODE":"US","RA_OF_ASC_NODE":"300.1161","EPHEMERIS_TYPE":"0","LAUNCH_DATE":"2021-05-15","TIME_SYSTEM":"UTC","INCLINATION":"53.0564","BSTAR":"0.00012458000000","PERIAPSIS":"546.234","TLE_LINE1":"1 48593U 21041AS  22050.91208303  .00001575  00000-0  12458-3 0  9993","MEAN_MOTION":"15.06398804","MEAN_ANOMALY":"293.3234","OBJECT_ID":"2021-041AS","OBJECT_NAME":"STARLINK-2250","APOAPSIS":"548.201","CENTER_NAME":"EARTH","ARG_OF_PERICENTER":"66.7905","ELEMENT_SET_NO":"999","EPOCH":"2022-02-19T21:53:23.973792","MEAN_MOTION_DOT":"0.00001575"},{"DECAY_DATE":null,"ECCENTRICITY":"0.00015280","REV_AT_EPOCH":"358","SEMIMAJOR_AXIS":"6927.792","SITE":"AFETR","REF_FRAME":"TEME","CLASSIFICATION_TYPE":"U","MEAN_MOTION_DDOT":"0.0000000000000","OBJECT_TYPE":"PAYLOAD","FILE":"3308986","RCS_SIZE":"LARGE","TLE_LINE2":"2 48594  53.0527 269.9193 0001528  93.0199 265.4897 15.05603139  3580","MEAN_ELEMENT_THEORY":"SGP4","NORAD_CAT_ID":"48594","GP_ID":"196428941","PERIOD":"95.643","COUNTRY_CODE":"US","RA_OF_ASC_NODE":"269.9193","LAUNCH_DATE":"2021-05-15","TIME_SYSTEM":"UTC","EPHEMERIS_TYPE":"0","MEAN_MOTION":"15.05603139","TLE_LINE1":"1 48594U 21041AT  22050.91667824 -.00048914  00000-0 -33591-2 0  9991","BSTAR":"-0.00335910000000","INCLINATION":"53.0527","PERIAPSIS":"548.598","MEAN_ANOMALY":"265.4897","OBJECT_ID":"2021-041AT","OBJECT_NAME":"STARLINK-2251","CENTER_NAME":"EARTH","APOAPSIS":"550.715","ELEMENT_SET_NO":"999","ARG_OF_PERICENTER":"93.0199","EPOCH":"2022-02-19T22:00:00.999936","MEAN_MOTION_DOT":"-0.00048914"}];
